{
  "type": "FeatureCollection",
  "features": [
    {
      "type": "Feature",
      "properties": {
        "norad_id": 41330,
        "name": "COSMOS 2514 (751)",
        "group": "gnss",
        "lat": 47.245059371414015,
        "lon": 108.91222890228453,
        "alt_km": 19126.564449445166,
        "timestamp": "2025-12-23T22:42:33.226986+00:00",
        "meta_object_name": "COSMOS 2514 (751)",
        "meta_object_id": "2016-008A",
        "meta_epoch": "2025-12-22T20:14:18.279168",
        "meta_mean_motion": 2.13102647,
        "meta_eccentricity": 0.00116826,
        "meta_inclination": 65.1279,
        "meta_ra_of_asc_node": 319.0581,
        "meta_arg_of_pericenter": 220.1101,
        "meta_mean_anomaly": 139.8009,
        "meta_ephemeris_type": 0,
        "meta_classification_type": "U",
        "meta_norad_cat_id": 41330,
        "meta_element_set_no": 999,
        "meta_rev_at_epoch": 7686,
        "meta_bstar": 0,
        "meta_mean_motion_dot": -3.8e-07,
        "meta_mean_motion_ddot": 0,
        "tle_line1": "1 41330U 16008A   25356.84326712 -.00000038  00000+0  00000+0 0  9990",
        "tle_line2": "2 41330  65.1279 319.0581 0011682 220.1101 139.8009  2.13102647 76868"
      },
      "geometry": {
        "type": "Point",
        "coordinates": [
          108.91222890228453,
          47.245059371414015
        ]
      }
    },
    {
      "type": "Feature",
      "properties": {
        "norad_id": 41384,
        "name": "IRNSS-1F",
        "group": "gnss",
        "lat": 0.4373217954000269,
        "lon": 105.8367378687419,
        "alt_km": 35880.123859710555,
        "timestamp": "2025-12-23T22:42:33.226999+00:00",
        "meta_object_name": "IRNSS-1F",
        "meta_object_id": "2016-015A",
        "meta_epoch": "2025-12-23T01:18:05.543712",
        "meta_mean_motion": 1.00277644,
        "meta_eccentricity": 0.00226619,
        "meta_inclination": 4.907,
        "meta_ra_of_asc_node": 101.0425,
        "meta_arg_of_pericenter": 181.9844,
        "meta_mean_anomaly": 220.8292,
        "meta_ephemeris_type": 0,
        "meta_classification_type": "U",
        "meta_norad_cat_id": 41384,
        "meta_element_set_no": 999,
        "meta_rev_at_epoch": 3590,
        "meta_bstar": 0,
        "meta_mean_motion_dot": 1.77e-06,
        "meta_mean_motion_ddot": 0,
        "tle_line1": "1 41384U 16015A   25357.05423083  .00000177  00000+0  00000+0 0  9993",
        "tle_line2": "2 41384   4.9070 101.0425 0022661 181.9844 220.8292  1.00277644 35900"
      },
      "geometry": {
        "type": "Point",
        "coordinates": [
          105.8367378687419,
          0.4373217954000269
        ]
      }
    },
    {
      "type": "Feature",
      "properties": {
        "norad_id": 41434,
        "name": "BEIDOU-2 IGSO-6 (C13)",
        "group": "gnss",
        "lat": 44.15831111266432,
        "lon": -174.31910563047157,
        "alt_km": 35836.766466592606,
        "timestamp": "2025-12-23T22:42:33.227011+00:00",
        "meta_object_name": "BEIDOU-2 IGSO-6 (C13)",
        "meta_object_id": "2016-021A",
        "meta_epoch": "2025-12-18T14:33:38.837664",
        "meta_mean_motion": 1.00292299,
        "meta_eccentricity": 0.00610054,
        "meta_inclination": 59.9732,
        "meta_ra_of_asc_node": 39.8392,
        "meta_arg_of_pericenter": 230.2031,
        "meta_mean_anomaly": 129.1398,
        "meta_ephemeris_type": 0,
        "meta_classification_type": "U",
        "meta_norad_cat_id": 41434,
        "meta_element_set_no": 999,
        "meta_rev_at_epoch": 3566,
        "meta_bstar": 0,
        "meta_mean_motion_dot": -1.41e-06,
        "meta_mean_motion_ddot": 0,
        "tle_line1": "1 41434U 16021A   25352.60669951 -.00000141  00000+0  00000+0 0  9990",
        "tle_line2": "2 41434  59.9732  39.8392 0061005 230.2031 129.1398  1.00292299 35667"
      },
      "geometry": {
        "type": "Point",
        "coordinates": [
          -174.31910563047157,
          44.15831111266432
        ]
      }
    },
    {
      "type": "Feature",
      "properties": {
        "norad_id": 41469,
        "name": "IRNSS-1G",
        "group": "gnss",
        "lat": 4.670970533813916,
        "lon": -157.02090662203653,
        "alt_km": 35792.228188803456,
        "timestamp": "2025-12-23T22:42:33.227023+00:00",
        "meta_object_name": "IRNSS-1G",
        "meta_object_id": "2016-027A",
        "meta_epoch": "2025-12-22T18:54:58.881600",
        "meta_mean_motion": 1.00275148,
        "meta_eccentricity": 0.0002638,
        "meta_inclination": 4.7591,
        "meta_ra_of_asc_node": 101.84,
        "meta_arg_of_pericenter": 328.4148,
        "meta_mean_anomaly": 74.6155,
        "meta_ephemeris_type": 0,
        "meta_classification_type": "U",
        "meta_norad_cat_id": 41469,
        "meta_element_set_no": 999,
        "meta_rev_at_epoch": 3541,
        "meta_bstar": 0,
        "meta_mean_motion_dot": -3.15e-06,
        "meta_mean_motion_ddot": 0,
        "tle_line1": "1 41469U 16027A   25356.78818150 -.00000315  00000+0  00000+0 0  9997",
        "tle_line2": "2 41469   4.7591 101.8400 0002638 328.4148  74.6155  1.00275148 35414"
      },
      "geometry": {
        "type": "Point",
        "coordinates": [
          -157.02090662203653,
          4.670970533813916
        ]
      }
    },
    {
      "type": "Feature",
      "properties": {
        "norad_id": 41549,
        "name": "GSAT0211 (GALILEO 14)",
        "group": "gnss",
        "lat": -23.964917299079524,
        "lon": -151.5068939616274,
        "alt_km": 23217.22306438649,
        "timestamp": "2025-12-23T22:42:33.227045+00:00",
        "meta_object_name": "GSAT0211 (GALILEO 14)",
        "meta_object_id": "2016-030A",
        "meta_epoch": "2025-12-22T05:38:05.943264",
        "meta_mean_motion": 1.70473275,
        "meta_eccentricity": 0.00040882,
        "meta_inclination": 55.1491,
        "meta_ra_of_asc_node": 226.562,
        "meta_arg_of_pericenter": 17.521,
        "meta_mean_anomaly": 342.5988,
        "meta_ephemeris_type": 0,
        "meta_classification_type": "U",
        "meta_norad_cat_id": 41549,
        "meta_element_set_no": 999,
        "meta_rev_at_epoch": 5965,
        "meta_bstar": 0,
        "meta_mean_motion_dot": 7.3e-07,
        "meta_mean_motion_ddot": 0,
        "tle_line1": "1 41549U 16030A   25356.23479101  .00000073  00000+0  00000+0 0  9999",
        "tle_line2": "2 41549  55.1491 226.5620 0004088  17.5210 342.5988  1.70473275 59659"
      },
      "geometry": {
        "type": "Point",
        "coordinates": [
          -151.5068939616274,
          -23.964917299079524
        ]
      }
    },
    {
      "type": "Feature",
      "properties": {
        "norad_id": 41550,
        "name": "GSAT0210 (GALILEO 13)",
        "group": "gnss",
        "lat": 6.214684682443807,
        "lon": 42.17834872766969,
        "alt_km": 23220.156840725846,
        "timestamp": "2025-12-23T22:42:33.227063+00:00",
        "meta_object_name": "GSAT0210 (GALILEO 13)",
        "meta_object_id": "2016-030B",
        "meta_epoch": "2025-12-21T21:44:04.443936",
        "meta_mean_motion": 1.70473441,
        "meta_eccentricity": 5.71e-05,
        "meta_inclination": 55.1488,
        "meta_ra_of_asc_node": 226.5692,
        "meta_arg_of_pericenter": 197.0028,
        "meta_mean_anomaly": 163.1021,
        "meta_ephemeris_type": 0,
        "meta_classification_type": "U",
        "meta_norad_cat_id": 41550,
        "meta_element_set_no": 999,
        "meta_rev_at_epoch": 5964,
        "meta_bstar": 0,
        "meta_mean_motion_dot": 7.3e-07,
        "meta_mean_motion_ddot": 0,
        "tle_line1": "1 41550U 16030B   25355.90560699  .00000073  00000+0  00000+0 0  9997",
        "tle_line2": "2 41550  55.1488 226.5692 0000571 197.0028 163.1021  1.70473441 59649"
      },
      "geometry": {
        "type": "Point",
        "coordinates": [
          42.17834872766969,
          6.214684682443807
        ]
      }
    },
    {
      "type": "Feature",
      "properties": {
        "norad_id": 41586,
        "name": "BEIDOU-2 G7 (C03)",
        "group": "gnss",
        "lat": 1.6071644395627984,
        "lon": -176.13632018840838,
        "alt_km": 35795.848460047746,
        "timestamp": "2025-12-23T22:42:33.227075+00:00",
        "meta_object_name": "BEIDOU-2 G7 (C03)",
        "meta_object_id": "2016-037A",
        "meta_epoch": "2025-12-23T13:08:38.014080",
        "meta_mean_motion": 1.00269426,
        "meta_eccentricity": 0.000514,
        "meta_inclination": 1.7815,
        "meta_ra_of_asc_node": 67.9389,
        "meta_arg_of_pericenter": 0.465,
        "meta_mean_anomaly": 331.5304,
        "meta_ephemeris_type": 0,
        "meta_classification_type": "U",
        "meta_norad_cat_id": 41586,
        "meta_element_set_no": 999,
        "meta_rev_at_epoch": 512,
        "meta_bstar": 0,
        "meta_mean_motion_dot": -3.33e-06,
        "meta_mean_motion_ddot": 0,
        "tle_line1": "1 41586U 16037A   25357.54766220 -.00000333  00000+0  00000+0 0  9993",
        "tle_line2": "2 41586   1.7815  67.9389 0005140   0.4650 331.5304  1.00269426  5122"
      },
      "geometry": {
        "type": "Point",
        "coordinates": [
          -176.13632018840838,
          1.6071644395627984
        ]
      }
    }
  ]
}